ONEWEB-0039             
1 45146U 20008R   23059.05830775  .00000549  00000+0  15348-2 0  9994
2 45146  87.8750 275.7256 0001553  64.8028 295.3261 13.10379075151116
ONEWEB-0039             
1 45146U 20008R   23059.51645164  .00000449  00000+0  12511-2 0  9999
2 45146  87.8750 275.6340 0001557  65.0806 295.0483 13.10379326150391
ONEWEB-0039             
1 45146U 20008R   23059.51645164  .00000449  00000+0  12511-2 0  9999
2 45146  87.8750 275.6340 0001557  65.0806 295.0483 13.10379326151178
ONEWEB-0039             
1 45146U 20008R   23059.82187989  .00000786  00000+0  22148-2 0  9990
2 45146  87.8756 275.5737 0001787  74.8807 285.2517 13.10379455151214
ONEWEB-0039             
1 45146U 20008R   23060.12731109  .00000382  00000+0  10586-2 0  9999
2 45146  87.8757 275.5121 0001587  65.4379 294.6914 13.10377567151251
ONEWEB-0039             
1 45146U 20008R   23060.81452299  .00000721  00000+0  20284-2 0  9998
2 45146  87.8751 275.3752 0001609  64.3395 295.7898 13.10380389151343
ONEWEB-0039             
1 45146U 20008R   23060.89088043  .00000697  00000+0  19601-2 0  9991
2 45146  87.8751 275.3598 0001600  65.0059 295.1235 13.10380131150575
ONEWEB-0039             
1 45146U 20008R   23061.11995129  .00000707  00000+0  19884-2 0  9994
2 45146  87.8754 275.3141 0001569  64.3669 295.7620 13.10380861151389
ONEWEB-0039             
1 45146U 20008R   23061.57809340  .00000564  00000+0  15804-2 0  9992
2 45146  87.8754 275.2227 0001609  61.5051 298.6238 13.10382163150666
ONEWEB-0039             
1 45146U 20008R   23061.57809340  .00000564  00000+0  15804-2 0  9992
2 45146  87.8754 275.2227 0001609  61.5051 298.6238 13.10382163151443
ONEWEB-0039             
1 45146U 20008R   23062.11259226  .00001357  00000+0  38501-2 0  9995
2 45146  87.8753 275.1158 0001487  58.6487 301.4786 13.10378848150735
ONEWEB-0039             
1 45146U 20008R   23062.11259226  .00001357  00000+0  38501-2 0  9995
2 45146  87.8753 275.1158 0001487  58.6487 301.4786 13.10378848151512
ONEWEB-0039             
1 45146U 20008R   23062.87616094  .00000679  00000+0  19082-2 0  9997
2 45146  87.8753 274.9633 0001484  63.5166 296.6113 13.10382822150833
